{
  "norad_id": 63866,
  "name": "STARLINK-34022",
  "history": [
    {
      "epoch": "2026-03-28T16:03:29.553984Z",
      "apogee_km": 574.2587476674971,
      "perigee_km": 569.8023002511336,
      "latitude_deg": 3.2907481052231275e-05,
      "longitude_deg": 119.74114724683838,
      "height_km": 574.4599215047424,
      "semi_major_axis_km": 6950.167523959315,
      "eccentricity": 0.0003206,
      "inclination_deg": 70.0016,
      "raan_deg": 186.7005,
      "arg_perigee_deg": 269.9583,
      "mean_anomaly_deg": 90.1209,
      "mean_motion_rev_day": 14.98338203
    },
    {
      "epoch": "2026-03-29T00:04:10.246368Z",
      "apogee_km": 573.8972583943223,
      "perigee_km": 570.1858630428987,
      "latitude_deg": -8.515783024124582e-06,
      "longitude_deg": -1.5991320148350283,
      "height_km": 574.4565839306312,
      "semi_major_axis_km": 6950.17856071861,
      "eccentricity": 0.000267,
      "inclination_deg": 70.0037,
      "raan_deg": 185.8588,
      "arg_perigee_deg": 270.3818,
      "mean_anomaly_deg": 89.7035,
      "mean_motion_rev_day": 14.98334634
    },
    {
      "epoch": "2026-03-30T00:06:11.108736Z",
      "apogee_km": 574.0807294387714,
      "perigee_km": 569.9829099026929,
      "latitude_deg": -5.901555501431586e-05,
      "longitude_deg": -5.614366744007355,
      "height_km": 574.271351358039,
      "semi_major_axis_km": 6950.168819670732,
      "eccentricity": 0.0002948,
      "inclination_deg": 70.0049,
      "raan_deg": 183.3342,
      "arg_perigee_deg": 275.2701,
      "mean_anomaly_deg": 84.8121,
      "mean_motion_rev_day": 14.98337784
    },
    {
      "epoch": "2026-03-30T00:06:11.109600Z",
      "apogee_km": 574.080795847156,
      "perigee_km": 569.9828373095261,
      "latitude_deg": -5.793637864588514e-05,
      "longitude_deg": -5.614369963324117,
      "height_km": 574.2713418818815,
      "semi_major_axis_km": 6950.168816578341,
      "eccentricity": 0.00029481,
      "inclination_deg": 70.0049,
      "raan_deg": 183.3342,
      "arg_perigee_deg": 275.2701,
      "mean_anomaly_deg": 84.8121,
      "mean_motion_rev_day": 14.98337785
    },
    {
      "epoch": "2026-03-30T12:55:15.441024Z",
      "apogee_km": 574.2853089277987,
      "perigee_km": 569.7811815986524,
      "latitude_deg": 2.017608614366251e-05,
      "longitude_deg": 160.24430011332467,
      "height_km": 574.4191107958491,
      "semi_major_axis_km": 6950.170245263225,
      "eccentricity": 0.00032403,
      "inclination_deg": 70.0031,
      "raan_deg": 181.9873,
      "arg_perigee_deg": 271.0697,
      "mean_anomaly_deg": 89.0091,
      "mean_motion_rev_day": 14.98337323
    },
    {
      "epoch": "2026-03-30T16:07:31.445472Z",
      "apogee_km": 574.3529211098412,
      "perigee_km": 569.6719954496893,
      "latitude_deg": -2.3182800784635185e-05,
      "longitude_deg": 111.70919746694804,
      "height_km": 574.385980392065,
      "semi_major_axis_km": 6950.149458279765,
      "eccentricity": 0.00033675,
      "inclination_deg": 70.0023,
      "raan_deg": 181.6505,
      "arg_perigee_deg": 271.3333,
      "mean_anomaly_deg": 88.744,
      "mean_motion_rev_day": 14.98344045
    },
    {
      "epoch": "2026-03-31T12:57:16.332768Z",
      "apogee_km": 574.3717760754871,
      "perigee_km": 569.6937558094269,
      "latitude_deg": -3.995938172969666e-05,
      "longitude_deg": 156.22823993849525,
      "height_km": 574.4260798120988,
      "semi_major_axis_km": 6950.169765942457,
      "eccentricity": 0.00033654,
      "inclination_deg": 70.002,
      "raan_deg": 179.462,
      "arg_perigee_deg": 270.8486,
      "mean_anomaly_deg": 89.2287,
      "mean_motion_rev_day": 14.98337478
    },
    {
      "epoch": "2026-04-01T09:47:01.169952Z",
      "apogee_km": 574.3571890719977,
      "perigee_km": 569.7242006206134,
      "latitude_deg": -9.815334208379889e-06,
      "longitude_deg": -159.2516912238014,
      "height_km": 574.4775127662955,
      "semi_major_axis_km": 6950.177694846305,
      "eccentricity": 0.0003333,
      "inclination_deg": 70.0019,
      "raan_deg": 177.2743,
      "arg_perigee_deg": 269.7799,
      "mean_anomaly_deg": 90.2978,
      "mean_motion_rev_day": 14.98334914
    },
    {
      "epoch": "2026-04-02T11:25:10.057440Z",
      "apogee_km": 574.4417284037154,
      "perigee_km": 569.6084466847951,
      "latitude_deg": 3.354059405932523e-05,
      "longitude_deg": 172.46536935053132,
      "height_km": 574.4081786720001,
      "semi_major_axis_km": 6950.162087544255,
      "eccentricity": 0.00034771,
      "inclination_deg": 70.0016,
      "raan_deg": 174.5812,
      "arg_perigee_deg": 271.0654,
      "mean_anomaly_deg": 89.0107,
      "mean_motion_rev_day": 14.98339961
    },
    {
      "epoch": "2026-04-02T22:38:06.219456Z",
      "apogee_km": 574.3929609850165,
      "perigee_km": 569.6202973548652,
      "latitude_deg": -6.536040666603509e-05,
      "longitude_deg": 2.5922171311220357,
      "height_km": 574.4871750037248,
      "semi_major_axis_km": 6950.14362916994,
      "eccentricity": 0.00034335,
      "inclination_deg": 70.0013,
      "raan_deg": 173.4027,
      "arg_perigee_deg": 268.7381,
      "mean_anomaly_deg": 91.3384,
      "mean_motion_rev_day": 14.9834593
    },
    {
      "epoch": "2026-04-03T14:39:26.609760Z",
      "apogee_km": 574.3732024091287,
      "perigee_km": 569.6484919026325,
      "latitude_deg": 1.7517929685105323e-05,
      "longitude_deg": 119.91627378532695,
      "height_km": 574.5245655945317,
      "semi_major_axis_km": 6950.14784715588,
      "eccentricity": 0.0003399,
      "inclination_deg": 70.0016,
      "raan_deg": 171.7197,
      "arg_perigee_deg": 267.92,
      "mean_anomaly_deg": 92.157,
      "mean_motion_rev_day": 14.98344566
    },
    {
      "epoch": "2026-04-04T14:41:27.587040Z",
      "apogee_km": 574.4090047093468,
      "perigee_km": 569.6272979652267,
      "latitude_deg": 6.2552632558641035e-06,
      "longitude_deg": 115.90217202103761,
      "height_km": 574.495535728627,
      "semi_major_axis_km": 6950.155151337287,
      "eccentricity": 0.000344,
      "inclination_deg": 70.0015,
      "raan_deg": 169.1967,
      "arg_perigee_deg": 268.8165,
      "mean_anomaly_deg": 91.26,
      "mean_motion_rev_day": 14.98342204
    },
    {
      "epoch": "2026-04-05T11:31:12.012960Z",
      "apogee_km": 574.0895550911282,
      "perigee_km": 570.0231359685258,
      "latitude_deg": 8.225945348373219e-05,
      "longitude_deg": 160.42187337330668,
      "height_km": 574.6619832843605,
      "semi_major_axis_km": 6950.193345529827,
      "eccentricity": 0.00029254,
      "inclination_deg": 70.0012,
      "raan_deg": 167.0069,
      "arg_perigee_deg": 264.9729,
      "mean_anomaly_deg": 95.1097,
      "mean_motion_rev_day": 14.98329853
    },
    {
      "epoch": "2026-04-05T14:43:28.070112Z",
      "apogee_km": 574.0703577079676,
      "perigee_km": 570.0475842799569,
      "latitude_deg": -1.891740663603837e-05,
      "longitude_deg": 111.88602920317757,
      "height_km": 574.6236278997858,
      "semi_major_axis_km": 6950.195970993962,
      "eccentricity": 0.0002894,
      "inclination_deg": 70.001,
      "raan_deg": 166.6696,
      "arg_perigee_deg": 266.0881,
      "mean_anomaly_deg": 93.9947,
      "mean_motion_rev_day": 14.98329004
    },
    {
      "epoch": "2026-04-06T05:08:40.958880Z",
      "apogee_km": 574.067163151024,
      "perigee_km": 570.0808001403911,
      "latitude_deg": -3.744021774137829e-05,
      "longitude_deg": -106.52460042138453,
      "height_km": 574.5060145299112,
      "semi_major_axis_km": 6950.210981645708,
      "eccentricity": 0.00028678,
      "inclination_deg": 70.0009,
      "raan_deg": 165.1549,
      "arg_perigee_deg": 269.8664,
      "mean_anomaly_deg": 90.2166,
      "mean_motion_rev_day": 14.9832415
    },
    {
      "epoch": "2026-04-07T11:35:14.817696Z",
      "apogee_km": 574.2326142217235,
      "perigee_km": 569.8792913638126,
      "latitude_deg": -2.727475964768007e-05,
      "longitude_deg": 152.38628264557266,
      "height_km": 574.6543617624294,
      "semi_major_axis_km": 6950.192952792768,
      "eccentricity": 0.00031318,
      "inclination_deg": 70.0006,
      "raan_deg": 161.9571,
      "arg_perigee_deg": 265.5004,
      "mean_anomaly_deg": 94.5797,
      "mean_motion_rev_day": 14.9832998
    },
    {
      "epoch": "2026-04-08T13:13:23.852064Z",
      "apogee_km": 574.2400433017447,
      "perigee_km": 569.8416927397457,
      "latitude_deg": -4.2631723295358285e-05,
      "longitude_deg": 124.10270401237099,
      "height_km": 574.4425702602325,
      "semi_major_axis_km": 6950.177868020744,
      "eccentricity": 0.00031642,
      "inclination_deg": 70.0005,
      "raan_deg": 159.264,
      "arg_perigee_deg": 270.6762,
      "mean_anomaly_deg": 89.4034,
      "mean_motion_rev_day": 14.98334858
    },
    {
      "epoch": "2026-04-09T11:39:16.610688Z",
      "apogee_km": 574.225359771157,
      "perigee_km": 569.8453611495961,
      "latitude_deg": 3.884154883552389e-06,
      "longitude_deg": 144.35526879697096,
      "height_km": 574.4781313674102,
      "semi_major_axis_km": 6950.172360460377,
      "eccentricity": 0.0003151,
      "inclination_deg": 70.0007,
      "raan_deg": 156.9076,
      "arg_perigee_deg": 269.6047,
      "mean_anomaly_deg": 90.4751,
      "mean_motion_rev_day": 14.98336639
    },
    {
      "epoch": "2026-04-10T10:05:09.477312Z",
      "apogee_km": 574.2221680410194,
      "perigee_km": 569.8560674038663,
      "latitude_deg": -1.0047000472442703e-05,
      "longitude_deg": 164.60746076972458,
      "height_km": 574.4829316908889,
      "semi_major_axis_km": 6950.1761177224425,
      "eccentricity": 0.0003141,
      "inclination_deg": 70.0008,
      "raan_deg": 154.5513,
      "arg_perigee_deg": 269.576,
      "mean_anomaly_deg": 90.5039,
      "mean_motion_rev_day": 14.98335424
    }
  ]
}